YAOGAN-30 07A           
1 45460U 20021A   26068.55604639  .00004701  00000+0  35264-3 0  9998
2 45460  34.9941  97.9026 0004392 231.7665 128.2648 15.02093562325567
STARLINK-6081           
1 56108U 23046R   26067.63522089  .00018168  00000+0  13507-2 0  9992
2 56108  43.0031 164.6545 0000578 245.9294 114.1488 15.02697277161909
